NORAD_CAT_ID,OBJECT_NAME,OBJECT_TYPE,EPOCH,MEAN_MOTION,ECCENTRICITY,INCLINATION,RA_OF_ASC_NODE,ARG_OF_PERICENTER,MEAN_ANOMALY,BSTAR,MEAN_MOTION_DOT,MEAN_MOTION_DDOT,TLE_LINE0,TLE_LINE1,TLE_LINE2,SEMIMAJOR_AXIS,PERIOD,APOGEE,PERIGEE,DECAYED
53619.0,STARLINK-4609,PAYLOAD,2024-07-04 03:57:06,15.08838005,0.0001461,53.2161,108.3387,88.6755,271.4404,0.000298,4.458e-05,0.0,0 STARLINK-4609,1 53619U 22104AH  24186.16465562  .00004458  00000-0  29800-3 0  9992,2 53619  53.2161 108.3387 0001461  88.6755 271.4404 15.08838005102446,6917.886,95.438,540.762,538.741,0.0
53619.0,STARLINK-4609,PAYLOAD,2024-07-04 11:54:01,15.08846222,0.0001449,53.2163,106.8523,89.3756,270.7402,0.0010129,0.00015872,0.0,0 STARLINK-4609,1 53619U 22104AH  24186.49585642  .00015872  00000-0  10129-2 0  9995,2 53619  53.2163 106.8523 0001449  89.3756 270.7402 15.08846222103067,6917.861,95.437,540.729,538.724,0.0
53619.0,STARLINK-4609,PAYLOAD,2024-07-04 23:01:43,15.08874231,0.0001356,53.2158,104.7698,89.6387,270.4761,0.0015591,0.00024635,0.0,0 STARLINK-4609,1 53619U 22104AH  24186.95952896  .00024635  00000-0  15591-2 0  9990,2 53619  53.2158 104.7698 0001356  89.6387 270.4761 15.08874231103135,6917.776,95.435,540.579,538.703,0.0
53619.0,STARLINK-4609,PAYLOAD,2024-07-05 00:37:06,15.08879255,0.0001356,53.2157,104.4725,89.3421,270.7726,0.0016651,0.0002634,0.0,0 STARLINK-4609,1 53619U 22104AH  24187.02576713  .00026340  00000-0  16651-2 0  9992,2 53619  53.2157 104.4725 0001356  89.3421 270.7726 15.08879255102570,6917.76,95.435,540.563,538.687,0.0
53619.0,STARLINK-4609,PAYLOAD,2024-07-05 11:44:48,15.08861955,0.0002044,53.2148,102.39,72.5013,287.6203,0.0011768,0.00018502,0.0,0 STARLINK-4609,1 53619U 22104AH  24187.48944613  .00018502  00000-0  11768-2 0  9995,2 53619  53.2148 102.3900 0002044  72.5013 287.6203 15.08861955102641,6917.813,95.436,541.092,538.264,0.0
53619.0,STARLINK-4609,PAYLOAD,2024-07-06 00:27:53,15.08841173,0.0001375,53.216,100.0121,75.8714,284.2431,0.0014812,0.00023365,0.0,0 STARLINK-4609,1 53619U 22104AH  24188.01936683  .00023365  00000-0  14812-2 0  9999,2 53619  53.2160 100.0121 0001375  75.8714 284.2431 15.08841173102720,6917.877,95.437,540.693,538.791,0.0
53619.0,STARLINK-4609,PAYLOAD,2024-07-06 11:35:35,15.08844632,0.0001328,53.2153,97.9315,71.3558,288.7578,0.00088027,0.00013751,0.0,0 STARLINK-4609,1 53619U 22104AH  24188.48304759  .00013751  00000-0  88027-3 0  9991,2 53619  53.2153  97.9315 0001328  71.3558 288.7578 15.08844632102797,6917.866,95.437,540.65,538.813,0.0
53619.0,STARLINK-4609,PAYLOAD,2024-07-06 17:57:08,15.08838344,0.00017,53.2178,96.7403,92.0521,268.0666,0.00052469,8.072e-05,0.0,0 STARLINK-4609,1 53619U 22104AH  24188.74801032  .00008072  00000-0  52469-3 0  9997,2 53619  53.2178  96.7403 0001700  92.0521 268.0666 15.08838344102830,6917.885,95.438,540.926,538.574,0.0
53619.0,STARLINK-4609,PAYLOAD,2024-07-06 22:43:17,15.08839515,0.0001635,53.2173,95.8496,85.83,274.2879,0.00035182,5.316e-05,0.0,0 STARLINK-4609,1 53619U 22104AH  24188.94673036  .00005316  00000-0  35182-3 0  9991,2 53619  53.2173  95.8496 0001635  85.8300 274.2879 15.08839515103432,6917.882,95.438,540.878,538.616,0.0
53619.0,STARLINK-4609,PAYLOAD,2024-07-07 03:29:26,15.08844552,0.0001661,53.2185,94.9559,94.6736,265.4446,0.00049085,7.533e-05,0.0,0 STARLINK-4609,1 53619U 22104AH  24189.14544898  .00007533  00000-0  49085-3 0  9997,2 53619  53.2185  94.9559 0001661  94.6736 265.4446 15.08844552103467,6917.866,95.437,540.881,538.582,0.0
53619.0,STARLINK-4609,PAYLOAD,2024-07-07 20:58:41,15.08844199,0.0001634,53.2182,91.6847,94.8387,265.2791,0.0002443,3.603e-05,0.0,0 STARLINK-4609,1 53619U 22104AH  24189.87408878  .00003603  00000-0  24430-3 0  9995,2 53619  53.2182  91.6847 0001634  94.8387 265.2791 15.08844199103000,6917.868,95.437,540.863,538.602,0.0
53619.0,STARLINK-4609,PAYLOAD,2024-07-08 03:20:13,15.08846837,0.0001613,53.2158,90.4949,92.5425,267.5751,0.00028671,4.279e-05,0.0,0 STARLINK-4609,1 53619U 22104AH  24190.13904751  .00004279  00000-0  28671-3 0  9998,2 53619  53.2158  90.4949 0001613  92.5425 267.5751 15.08846837103617,6917.859,95.437,540.84,538.609,0.0
53619.0,STARLINK-4609,PAYLOAD,2024-07-08 20:49:28,15.08840649,0.0001511,53.2168,87.2209,91.8219,268.2946,9.9567e-05,1.297e-05,0.0,0 STARLINK-4609,1 53619U 22104AH  24190.86768918  .00001297  00000-0  99567-4 0  9991,2 53619  53.2168  87.2209 0001511  91.8219 268.2946 15.08840649103159,6917.878,95.438,540.789,538.698,0.0
53619.0,STARLINK-4609,PAYLOAD,2024-07-08 22:24:51,15.08844885,0.0001803,53.2172,86.9235,100.1771,259.9425,-5.2106e-05,-1.117e-05,0.0,0 STARLINK-4609,1 53619U 22104AH  24190.93392629 -.00001117  00000-0 -52106-4 0  9992,2 53619  53.2172  86.9235 0001803 100.1771 259.9425 15.08844885103739,6917.865,95.437,540.978,538.483,0.0
53619.0,STARLINK-4609,PAYLOAD,2024-07-09 09:32:33,15.08835313,9.67e-05,53.2193,84.8452,92.3427,267.7676,-5.6092e-05,-1.18e-05,0.0,0 STARLINK-4609,1 53619U 22104AH  24191.39760910 -.00001180  00000-0 -56092-4 0  9993,2 53619  53.2193  84.8452 0000967  92.3427 267.7676 15.08835313103809,6917.895,95.438,540.429,539.091,0.0
53619.0,STARLINK-4609,PAYLOAD,2024-07-09 22:15:38,15.08838008,0.0001294,53.2166,82.4683,84.1395,275.9745,-4.7636e-05,-1.046e-05,0.0,0 STARLINK-4609,1 53619U 22104AH  24191.92753132 -.00001046  00000-0 -47636-4 0  9995,2 53619  53.2166  82.4683 0001294  84.1395 275.9745 15.08838008103886,6917.886,95.438,540.647,538.856,0.0
53619.0,STARLINK-4609,PAYLOAD,2024-07-10 09:23:20,15.08843387,0.0001655,53.2173,80.3873,68.0402,292.0766,6.267e-05,7.1e-06,0.0,0 STARLINK-4609,1 53619U 22104AH  24192.39121118  .00000710  00000-0  62670-4 0  9990,2 53619  53.2173  80.3873 0001655  68.0402 292.0766 15.08843387103950,6917.87,95.437,540.88,538.59,0.0
53619.0,STARLINK-4609,PAYLOAD,2024-07-10 22:06:26,15.08837101,0.0001242,53.2163,78.0093,90.1389,269.9746,6.2066e-05,7e-06,0.0,0 STARLINK-4609,1 53619U 22104AH  24192.92113537  .00000700  00000-0  62066-4 0  9993,2 53619  53.2163  78.0093 0001242  90.1389 269.9746 15.08837101104037,6917.889,95.438,540.613,538.895,0.0
53619.0,STARLINK-4609,PAYLOAD,2024-07-12 01:07:59,15.08848761,0.0001251,53.2166,72.9532,81.4099,278.7035,0.00026152,3.878e-05,0.0,0 STARLINK-4609,1 53619U 22104AH  24194.04721124  .00003878  00000-0  26152-3 0  9999,2 53619  53.2166  72.9532 0001251  81.4099 278.7035 15.08848761103630,6917.854,95.437,540.584,538.853,0.0
53619.0,STARLINK-4609,PAYLOAD,2024-07-12 09:04:54,15.0884706,0.000113,53.2164,71.4669,96.4915,263.6206,0.00010056,1.313e-05,0.0,0 STARLINK-4609,1 53619U 22104AH  24194.37841070  .00001313  00000-0  10056-3 0  9996,2 53619  53.2164  71.4669 0001130  96.4915 263.6206 15.08847060104255,6917.859,95.437,540.506,538.942,0.0
53619.0,STARLINK-4609,PAYLOAD,2024-07-12 21:48:00,15.08840084,0.0001239,53.215,69.0879,89.1871,270.9263,0.00011901,1.607e-05,0.0,0 STARLINK-4609,1 53619U 22104AH  24194.90833695  .00001607  00000-0  11901-3 0  9995,2 53619  53.2150  69.0879 0001239  89.1871 270.9263 15.08840084103764,6917.88,95.438,540.602,538.888,0.0
53619.0,STARLINK-4609,PAYLOAD,2024-07-13 00:58:46,15.08849424,0.0001418,53.2152,68.4923,93.1311,266.9844,0.00016696,2.371e-05,0.0,0 STARLINK-4609,1 53619U 22104AH  24195.04081054  .00002371  00000-0  16696-3 0  9990,2 53619  53.2152  68.4923 0001418  93.1311 266.9844 15.08849424103781,6917.852,95.437,540.698,538.736,0.0
53619.0,STARLINK-4609,PAYLOAD,2024-07-13 08:55:42,15.08837367,0.0001607,53.2163,67.0044,85.5416,274.576,3.9619e-06,-2.25e-06,0.0,0 STARLINK-4609,1 53619U 22104AH  24195.37201806 -.00000225  00000-0  39619-5 0  9994,2 53619  53.2163  67.0044 0001607  85.5416 274.5760 15.08837367103834,6917.888,95.438,540.865,538.642,0.0
53619.0,STARLINK-4609,PAYLOAD,2024-07-13 21:38:47,15.08839169,0.0001171,53.2165,64.6248,89.0572,271.0554,7.8909e-05,9.68e-06,0.0,0 STARLINK-4609,1 53619U 22104AH  24195.90193722  .00000968  00000-0  78909-4 0  9997,2 53619  53.2165  64.6248 0001171  89.0572 271.0554 15.08839169104480,6917.883,95.438,540.558,538.938,0.0
53619.0,STARLINK-4609,PAYLOAD,2024-07-14 08:46:29,15.0884656,0.0001351,53.217,62.5415,95.0617,265.053,0.00019212,2.772e-05,0.0,0 STARLINK-4609,1 53619U 22104AH  24196.36561396  .00002772  00000-0  19212-3 0  9990,2 53619  53.2170  62.5415 0001351  95.0617 265.0530 15.08846560104554,6917.86,95.437,540.66,538.791,0.0
53619.0,STARLINK-4609,PAYLOAD,2024-07-14 21:29:33,15.08854781,0.000133,53.2177,60.1612,102.2017,257.9125,0.00047012,7.205e-05,0.0,0 STARLINK-4609,1 53619U 22104AH  24196.89553103  .00007205  00000-0  47012-3 0  9990,2 53619  53.2177  60.1612 0001330 102.2017 257.9125 15.08854781104066,6917.835,95.437,540.62,538.78,0.0
53619.0,STARLINK-4609,PAYLOAD,2024-07-15 14:58:48,15.08842178,0.0001429,53.2174,56.8913,93.9783,266.1372,0.00016076,2.272e-05,0.0,0 STARLINK-4609,1 53619U 22104AH  24197.62417693  .00002272  00000-0  16076-3 0  9990,2 53619  53.2174  56.8913 0001429  93.9783 266.1372 15.08842178104742,6917.874,95.437,540.727,538.75,0.0
53619.0,STARLINK-4609,PAYLOAD,2024-07-15 21:20:21,15.08840562,0.0001459,53.2175,55.7025,93.8396,266.2763,7.8568e-05,9.63e-06,0.0,0 STARLINK-4609,1 53619U 22104AH  24197.88913723  .00000963  00000-0  78568-4 0  9993,2 53619  53.2175  55.7025 0001459  93.8396 266.2763 15.08840562104219,6917.879,95.438,540.753,538.734,0.0
53619.0,STARLINK-4609,PAYLOAD,2024-07-16 21:11:08,15.08853502,0.0001512,53.2177,51.2425,96.1808,263.9356,0.00032222,4.846e-05,0.0,0 STARLINK-4609,1 53619U 22104AH  24198.88273280  .00004846  00000-0  32222-3 0  9991,2 53619  53.2177  51.2425 0001512  96.1808 263.9356 15.08853502104939,6917.839,95.437,540.75,538.658,0.0
53619.0,STARLINK-4609,PAYLOAD,2024-07-17 06:43:27,15.08840015,0.0001682,53.2178,49.4593,95.5183,264.6001,0.00016982,2.416e-05,0.0,0 STARLINK-4609,1 53619U 22104AH  24199.28017673  .00002416  00000-0  16982-3 0  9994,2 53619  53.2178  49.4593 0001682  95.5183 264.6001 15.08840015104426,6917.88,95.438,540.909,538.582,0.0
